ONEWEB-0055             
1 45443U 20020V   22147.49541179 -.00000058  00000+0 -19987-3 0  9991
2 45443  87.8849 315.6273 0001554  92.3872 267.7434 13.11416410108429
ONEWEB-0093             
1 45444U 20020W   22147.16553613  .00000139  00000+0  35607-3 0  9997
2 45444  87.8817 315.7161 0001441  91.3994 268.7299 13.11413413108443
ONEWEB-0029             
1 45445U 20020X   22146.73012670  .00000200  00000+0  52786-3 0  9999
2 45445  87.8796 315.7866 0001319  78.2602 281.8674 13.11411041108354
ONEWEB-0068             
1 45446U 20020Y   22147.15768213  .00000438  00000+0  12013-2 0  9999
2 45446  87.8820 315.7147 0001314  87.2297 272.8981 13.11416718108368
ONEWEB-0046             
1 45447U 20020Z   22146.69654299  .00000499  00000+0  13711-2 0  9999
2 45447  87.8825 315.8158 0001872  90.8669 269.2673 13.11416581108309
ONEWEB-0063             
1 45448U 20020AA  22146.72570227 -.00000516  00000+0 -14932-2 0  9990
2 45448  87.8810 315.7977 0001993  92.1881 267.9475 13.11416706108390
ONEWEB-0019             
1 45449U 20020AB  22147.15880267  .00000375  00000+0  10230-2 0  9995
2 45449  87.8822 315.7064 0001721  97.8765 262.2558 13.11418223108300
ONEWEB-0094             
1 45450U 20020AC  22147.12007996 -.00000037  00000+0 -12929-3 0  9999
2 45450  87.9027 300.3982 0001725 100.9466 259.1859 13.17652407111131
ONEWEB-0087             
1 45451U 20020AD  22146.73468110 -.00000384  00000+0 -11203-2 0  9993
2 45451  87.8819 315.8280 0001626  78.7638 281.3672 13.11417842108283
ONEWEB-0082             
1 45452U 20020AE  22146.73694249 -.00000330  00000+0 -96814-3 0  9991
2 45452  87.8829 315.7633 0001272  79.7667 280.3604 13.11417425108377
ONEWEB-0050             
1 45453U 20020AF  22147.30824512  .00003629  00000+0  31319-3 0  9995
2 45453  87.5409 247.5171 0023531 289.5523  70.3168 14.96790579119116
ONEWEB-0034             
1 45454U 20020AG  22147.51785305  .00000192  00000+0  50703-3 0  9995
2 45454  87.8832 315.6292 0001645  85.5800 274.5516 13.11417921108403
ONEWEB-0060             
1 45455U 20020AH  22146.76378244  .00000675  00000+0  18694-2 0  9990
2 45455  87.8826 315.7879 0001773  89.2506 270.8825 13.11418706108252
ONEWEB-0086             
1 45456U 20020AJ  22147.54477566  .00000341  00000+0  92706-3 0  9992
2 45456  87.8826 315.6244 0001507  87.3478 272.7822 13.11416034108418
ONEWEB-0088             
1 45457U 20020AK  22146.75714264  .00000485  00000+0  13324-2 0  9991
2 45457  87.8824 315.7959 0001762  85.3356 274.7973 13.11419630108242
ONEWEB-0102             
1 47258U 20100A   22147.46497811 -.00000213  00000+0 -62762-3 0  9998
2 47258  87.8831 285.0894 0001595 110.7156 249.4144 13.12410650 70378
ONEWEB-0109             
1 47259U 20100B   22147.39983982 -.00000213  00000+0 -62623-3 0  9996
2 47259  87.8870 285.1403 0001669 105.8572 254.2740 13.12603121 70191
ONEWEB-0110             
1 47260U 20100C   22147.42302524 -.00000132  00000+0 -40235-3 0  9994
2 47260  87.8881 285.1029 0001484 111.8076 248.3210 13.12560358 70369
ONEWEB-0111             
1 47261U 20100D   22147.45384852  .00000473  00000+0  12842-2 0  9990
2 47261  87.8854 285.1026 0001646 108.8681 251.2625 13.12215274 70205
ONEWEB-0114             
1 47262U 20100E   22147.40966829 -.00000885  00000+0 -24998-2 0  9990
2 47262  87.8916 285.0782 0002009 118.6349 241.4982 13.12333078 70151
ONEWEB-0117             
1 47263U 20100F   22147.40207396 -.00000210  00000+0 -61861-3 0  9991
2 47263  87.8873 285.1416 0001621 102.8523 257.2787 13.12630847 70160
ONEWEB-0118             
1 47264U 20100G   22147.43286928  .00000114  00000+0  28070-3 0  9999
2 47264  87.8854 285.0861 0002506 108.8129 251.3272 13.12295591 70363
ONEWEB-0119             
1 47265U 20100H   22147.07933192  .00000159  00000+0  40657-3 0  9996
2 47265  87.8826 285.1702 0001669 101.9840 258.1476 13.12313314 70298
ONEWEB-0120             
1 47266U 20100J   22147.41413519 -.00000244  00000+0 -71399-3 0  9995
2 47266  87.8913 285.1747 0001132 102.5036 257.6219 13.12405233 70363
ONEWEB-0121             
1 47267U 20100K   22147.39762501 -.00000115  00000+0 -35425-3 0  9998
2 47267  87.8874 285.2139 0001611 100.5334 259.5976 13.12556914 70271
ONEWEB-0122             
1 47268U 20100L   22146.62857977 -.00000131  00000+0 -39938-3 0  9997
2 47268  87.8908 285.2760 0001637 104.2976 255.8334 13.12443111 70081
ONEWEB-0123             
1 47269U 20100M   22147.08154520  .00000235  00000+0  61823-3 0  9994
2 47269  87.8845 285.1705 0001781 101.0528 259.0801 13.12363855 70281
ONEWEB-0124             
1 47270U 20100N   22147.44941253  .00000500  00000+0  13607-2 0  9994
2 47270  87.8946 285.0484 0001411  84.8077 275.3212 13.12135450 70213
ONEWEB-0125             
1 47271U 20100P   22147.42747899  .00000061  00000+0  13501-3 0  9999
2 47271  87.8855 285.1612 0001843 109.9842 250.1485 13.12634637 70275
ONEWEB-0126             
1 47272U 20100Q   22147.07149069  .00000442  00000+0  11964-2 0  9999
2 47272  87.8855 285.2238 0001722 111.3008 248.8304 13.12194615 70291
ONEWEB-0127             
1 47273U 20100R   22146.65398669 -.00000190  00000+0 -56475-3 0  9994
2 47273  87.8872 285.2021 0001779 102.9547 257.1780 13.12444421 70268
ONEWEB-0128             
1 47274U 20100S   22147.43731537  .00000395  00000+0  10635-2 0  9999
2 47274  87.8874 285.0841 0001296 101.3955 258.7319 13.12373319 70384
ONEWEB-0129             
1 47275U 20100T   22147.41860238 -.00000284  00000+0 -82424-3 0  9994
2 47275  87.8939 285.1432 0002974 137.2526 222.8834 13.12473557 70312
ONEWEB-0130             
1 47276U 20100U   22146.45294299  .00000005  00000+0 -21356-4 0  9994
2 47276  87.8874 285.3321 0001588  99.5790 260.5518 13.12485409 70152
ONEWEB-0131             
1 47277U 20100V   22147.44178736  .00000512  00000+0  13871-2 0  9995
2 47277  87.8875 285.0810 0001607  96.0318 264.0994 13.12443512 70329
ONEWEB-0132             
1 47278U 20100W   22147.39540493 -.00000101  00000+0 -31485-3 0  9991
2 47278  87.8834 285.1262 0001844 112.1692 247.9633 13.12514848 70214
ONEWEB-0133             
1 47279U 20100X   22147.41192761 -.00000350  00000+0 -10103-2 0  9995
2 47279  87.8865 285.0717 0001680 101.7490 258.3827 13.12360349 70374
ONEWEB-0134             
1 47280U 20100Y   22147.07481487  .00000046  00000+0  93943-4 0  9990
2 47280  87.8885 285.1480 0001470 105.5150 254.6141 13.12263687 70306
ONEWEB-0135             
1 47281U 20100Z   22147.42526278 -.00000049  00000+0 -16991-3 0  9990
2 47281  87.8870 285.0571 0001639 110.4811 249.6494 13.12590041 70376
ONEWEB-0136             
1 47282U 20100AA  22147.44621369  .00000505  00000+0  13672-2 0  9997
2 47282  87.8924 285.1322 0001251 136.3374 223.7853 13.12527243 70302
ONEWEB-0137             
1 47283U 20100AB  22147.40651814 -.00000309  00000+0 -89193-3 0  9998
2 47283  87.8883 285.1174 0001868 111.4697 248.6631 13.12702453 70205
ONEWEB-0138             
1 47284U 20100AC  22147.07708195  .00000349  00000+0  93695-3 0  9991
2 47284  87.8891 285.1967 0001627 115.2167 244.9131 13.12280006 70245
ONEWEB-0139             
1 47285U 20100AD  22147.43063382  .00000145  00000+0  36843-3 0  9990
2 47285  87.8853 285.1786 0001440 108.6530 251.4755 13.12256604 70361
ONEWEB-0140             
1 47286U 20100AE  22147.45162131  .00000519  00000+0  14117-2 0  9999
2 47286  87.8853 285.1097 0001631 111.3944 248.7359 13.12183394 70329
ONEWEB-0141             
1 47287U 20100AF  22146.94138436  .00000285  00000+0  75508-3 0  9996
2 47287  87.8885 285.1858 0002184 108.5233 251.6133 13.12566275 70251
ONEWEB-0142             
1 47288U 20100AG  22146.39874152 -.00001187  00000+0 -33359-2 0  9999
2 47288  87.8839 285.3800 0002035 106.9763 253.1589 13.12431083 70176
ONEWEB-0143             
1 47289U 20100AH  22147.42085923 -.00000246  00000+0 -71808-3 0  9992
2 47289  87.8880 285.1096 0001744 102.9662 257.1661 13.12493770 70286
ONEWEB-0144             
1 47290U 20100AJ  22146.63084971  .00001276  00000+0  35091-2 0  9993
2 47290  87.8893 285.2627 0001493 103.2525 256.8770 13.12462104 70101
ONEWEB-0145             
1 47291U 20100AK  22147.43951331  .00000426  00000+0  11484-2 0  9992
2 47291  87.8845 285.0858 0001770 107.7589 252.3733 13.12425718 70403
ONEWEB-0146             
1 47292U 20100AL  22147.43506689  .00000242  00000+0  63848-3 0  9993
2 47292  87.8876 285.1283 0001896  75.6607 284.4732 13.12345567 70312
ONEWEB-0147             
1 47293U 20100AM  22147.40427150 -.00000261  00000+0 -75931-3 0  9995
2 47293  87.8850 285.1216 0001527 127.1113 233.0155 13.12687183 70207
ONEWEB-0115             
1 48042U 21025A   22146.98849152  .00000351  00000+0  92721-3 0  9991
2 48042  87.9061 254.5615 0001641  99.0694 261.0621 13.13469623 59031
ONEWEB-0152             
1 48043U 21025B   22146.99967682 -.00000003  00000+0 -42373-4 0  9997
2 48043  87.8989 254.6172 0001562 104.5153 255.6149 13.13470487 58991
ONEWEB-0153             
1 48044U 21025C   22147.05345021  .00000314  00000+0  82594-3 0  9994
2 48044  87.8927 254.6859 0001887 104.7384 255.3955 13.13470650 58998
ONEWEB-0154             
1 48045U 21025D   22147.35592769  .00000250  00000+0  65005-3 0  9998
2 48045  87.9032 254.6109 0001470  97.9631 262.1664 13.13475209 58999
ONEWEB-0116             
1 48046U 21025E   22147.55083399 -.00000367  00000+0 -10401-2 0  9995
2 48046  87.9019 254.5583 0001841  91.1247 269.0093 13.13471949 59159
ONEWEB-0150             
1 48047U 21025F   22147.37159036  .00001213  00000+0  32865-2 0  9995
2 48047  87.9063 254.4382 0002428 105.0235 255.1163 13.13464621 59028
ONEWEB-0107             
1 48048U 21025G   22146.53588856  .00000068  00000+0  15101-3 0  9991
2 48048  87.9061 254.6302 0002151 117.8477 242.2870 13.13470569 58897
ONEWEB-0101             
1 48049U 21025H   22146.57621289  .00000056  00000+0  11706-3 0  9998
2 48049  87.8920 254.6485 0001810 110.5304 249.6019 13.13471888 58872
